SHENZHOU-21 (SZ-21)     
1 66263U 25246A   25308.86414658  .00028084  00000+0  33527-3 0  9996
2 66263  41.4668 246.7216 0006228 323.7739  36.2677 15.60384612258095
CZ-2F R/B               
1 66264U 25246B   25308.12924896  .01001864  75817-5  63920-3 0  9998
2 66264  41.4653 249.8168 0095739 151.8123 208.7960 16.06758210   560
